QIANFAN-81              
1 63167U 25046J   25197.61959929  .00000095  00000+0  12786-3 0  9994
2 63167  88.9846 335.2291 0014729 184.2904 175.8124 13.50956359 27355
QIANFAN-82              
1 63168U 25046K   25197.57832377  .00000100  00000+0  13598-3 0  9996
2 63168  88.9846 335.2768 0012611 191.2809 168.8061 13.50957635 27333
QIANFAN-83              
1 63169U 25046L   25197.63208902  .00000134  00000+0  15742-3 0  9995
2 63169  88.9846 335.3394 0014077 185.0652 175.0365 13.61925567 27300
QIANFAN-84              
1 63170U 25046M   25197.60720504  .00000128  00000+0  17919-3 0  9992
2 63170  88.9846 335.4070 0015684 189.2362 170.8503 13.50957666 27268
QIANFAN-85              
1 63171U 25046N   25197.60309251  .00000101  00000+0  13811-3 0  9993
2 63171  88.9845 335.2797 0012993 190.3318 169.7568 13.50954130 27335
QIANFAN-86              
1 63172U 25046P   25197.53726168  .00000090  00000+0  12048-3 0  9994
2 63172  88.9848 335.1452 0010750 193.2435 166.8436 13.50954238 27406
QIANFAN-87              
1 63173U 25046Q   25197.58240872  .00000082  00000+0  10862-3 0  9996
2 63173  88.9844 335.2578 0011627 188.4441 171.6516 13.50958932 27341
QIANFAN-88              
1 63174U 25046R   25197.59907057  .00000109  00000+0  15077-3 0  9996
2 63174  88.9846 335.2070 0011726 196.9782 163.0979 13.50954521 27374
